{
    "links": {
        "self": "http://www.neowsapp.com/rest/v1/neo/3825629?api_key=iIulBulltgU6a56xZRHN4H3l9WmuAYTsLGpBGhQ2"
    },
    "id": "3825629",
    "neo_reference_id": "3825629",
    "name": "(2018 NM3)",
    "designation": "2018 NM3",
    "nasa_jpl_url": "http://ssd.jpl.nasa.gov/sbdb.cgi?sstr=3825629",
    "absolute_magnitude_h": 23.8,
    "estimated_diameter": {
        "kilometers": {
            "estimated_diameter_min": 0.046190746,
            "estimated_diameter_max": 0.1032856481
        },
        "meters": {
            "estimated_diameter_min": 46.1907460282,
            "estimated_diameter_max": 103.2856480504
        },
        "miles": {
            "estimated_diameter_min": 0.0287015901,
            "estimated_diameter_max": 0.0641787064
        },
        "feet": {
            "estimated_diameter_min": 151.544447199,
            "estimated_diameter_max": 338.8636855496
        }
    },
    "is_potentially_hazardous_asteroid": false,
    "close_approach_data": [
        {
            "close_approach_date": "2018-07-06",
            "close_approach_date_full": "2018-Jul-06 01:41",
            "epoch_date_close_approach": 1530841260000,
            "relative_velocity": {
                "kilometers_per_second": "4.161241703",
                "kilometers_per_hour": "14980.4701306795",
                "miles_per_hour": "9308.2815653658"
            },
            "miss_distance": {
                "astronomical": "0.2343828793",
                "lunar": "91.1749400477",
                "kilometers": "35063179.507747091",
                "miles": "21787249.4579322158"
            },
            "orbiting_body": "Earth"
        }
    ],
    "orbital_data": {
        "orbit_id": "4",
        "orbit_determination_date": "2018-08-13 06:53:22",
        "first_observation_date": "2018-07-10",
        "last_observation_date": "2018-08-12",
        "data_arc_in_days": 33,
        "observations_used": 23,
        "orbit_uncertainty": "7",
        "minimum_orbit_intersection": ".229511",
        "jupiter_tisserand_invariant": "3.614",
        "epoch_osculation": "2459000.5",
        "eccentricity": ".4128614425339238",
        "semi_major_axis": "2.114973641793564",
        "inclination": "6.624428520575982",
        "ascending_node_longitude": "299.9376484118751",
        "orbital_period": "1123.455476894825",
        "perihelion_distance": "1.241782573121447",
        "perihelion_argument": "338.5289315178618",
        "aphelion_distance": "2.98816471046568",
        "perihelion_time": "2459420.385741667537",
        "mean_anomaly": "225.4518402294775",
        "mean_motion": ".3204399350075021",
        "equinox": "J2000",
        "orbit_class": {
            "orbit_class_type": "AMO",
            "orbit_class_description": "Near-Earth asteroid orbits similar to that of 1221 Amor",
            "orbit_class_range": "1.017 AU < q (perihelion) < 1.3 AU"
        }
    },
    "is_sentry_object": false
}